[{"OBJECT_NAME":"STARLINK-36205","OBJECT_ID":"2025-298Z","EPOCH":"2026-03-09T22:26:49.176096","MEAN_MOTION":14.9914569,"ECCENTRICITY":0.00028056,"INCLINATION":70.0015,"RA_OF_ASC_NODE":13.8601,"ARG_OF_PERICENTER":265.4327,"MEAN_ANOMALY":94.6512,"EPHEMERIS_TYPE":0,"CLASSIFICATION_TYPE":"U","NORAD_CAT_ID":67098,"ELEMENT_SET_NO":999,"REV_AT_EPOCH":1325,"BSTAR":4.5969871e-5,"MEAN_MOTION_DOT":4.67e-6,"MEAN_MOTION_DDOT":0},{"OBJECT_NAME":"COSMOS 2251 DEB","OBJECT_ID":"1993-036BLZ","EPOCH":"2026-03-06T21:00:05.608224","MEAN_MOTION":14.97960044,"ECCENTRICITY":0.00597249,"INCLINATION":73.9479,"RA_OF_ASC_NODE":151.0759,"ARG_OF_PERICENTER":149.7591,"MEAN_ANOMALY":210.7065,"EPHEMERIS_TYPE":0,"CLASSIFICATION_TYPE":"U","NORAD_CAT_ID":37496,"ELEMENT_SET_NO":999,"REV_AT_EPOCH":67275,"BSTAR":0.0022465948,"MEAN_MOTION_DOT":0.00027564,"MEAN_MOTION_DDOT":0}]
